{
  "type": "FeatureCollection",
  "features": [
    {
      "type": "Feature",
      "properties": {
        "norad_id": 37978,
        "name": "COSMOS 2251 DEB",
        "group": "cosmos-2251-debris",
        "lat": -37.672774682059476,
        "lon": 87.21085307980485,
        "alt_km": 340.5359883924357,
        "timestamp": "2025-12-07T22:37:43.480065+00:00",
        "meta_object_name": "COSMOS 2251 DEB",
        "meta_object_id": "1993-036BQD",
        "meta_epoch": "2025-11-19T05:08:53.100672",
        "meta_mean_motion": 15.61137081,
        "meta_eccentricity": 0.00148985,
        "meta_inclination": 74.0238,
        "meta_ra_of_asc_node": 142.2198,
        "meta_arg_of_pericenter": 140.9849,
        "meta_mean_anomaly": 219.2448,
        "meta_ephemeris_type": 0,
        "meta_classification_type": "U",
        "meta_norad_cat_id": 37978,
        "meta_element_set_no": 999,
        "meta_rev_at_epoch": 8032,
        "meta_bstar": 0.0043958825,
        "meta_mean_motion_dot": 0.0039117,
        "meta_mean_motion_ddot": 0,
        "tle_line1": "1 37978U 93036BQD 25323.21450348  .00391170  00000+0  43959-2 0  9999",
        "tle_line2": "2 37978  74.0238 142.2198 0014898 140.9849 219.2448 15.61137081 80328"
      },
      "geometry": {
        "type": "Point",
        "coordinates": [
          87.21085307980485,
          -37.672774682059476
        ]
      }
    },
    {
      "type": "Feature",
      "properties": {
        "norad_id": 37985,
        "name": "COSMOS 2251 DEB",
        "group": "cosmos-2251-debris",
        "lat": -67.55695001034756,
        "lon": -129.3658156698121,
        "alt_km": 786.0628589152202,
        "timestamp": "2025-12-07T22:37:43.480075+00:00",
        "meta_object_name": "COSMOS 2251 DEB",
        "meta_object_id": "1993-036BQL",
        "meta_epoch": "2025-12-05T12:25:56.322336",
        "meta_mean_motion": 14.35479153,
        "meta_eccentricity": 0.00205449,
        "meta_inclination": 74.0253,
        "meta_ra_of_asc_node": 278.9914,
        "meta_arg_of_pericenter": 43.9287,
        "meta_mean_anomaly": 316.3494,
        "meta_ephemeris_type": 0,
        "meta_classification_type": "U",
        "meta_norad_cat_id": 37985,
        "meta_element_set_no": 999,
        "meta_rev_at_epoch": 64813,
        "meta_bstar": 0.00010256916,
        "meta_mean_motion_dot": 2.69e-06,
        "meta_mean_motion_ddot": 0,
        "tle_line1": "1 37985U 93036BQL 25339.51801299  .00000269  00000+0  10257-3 0  9994",
        "tle_line2": "2 37985  74.0253 278.9914 0020544  43.9287 316.3494 14.35479153648137"
      },
      "geometry": {
        "type": "Point",
        "coordinates": [
          -129.3658156698121,
          -67.55695001034756
        ]
      }
    },
    {
      "type": "Feature",
      "properties": {
        "norad_id": 37988,
        "name": "COSMOS 2251 DEB",
        "group": "cosmos-2251-debris",
        "lat": 66.36094718573055,
        "lon": 74.04872277872238,
        "alt_km": 613.5804108947914,
        "timestamp": "2025-12-07T22:37:43.480086+00:00",
        "meta_object_name": "COSMOS 2251 DEB",
        "meta_object_id": "1993-036BQP",
        "meta_epoch": "2025-12-06T13:36:37.166976",
        "meta_mean_motion": 14.68776482,
        "meta_eccentricity": 0.00631953,
        "meta_inclination": 74.0631,
        "meta_ra_of_asc_node": 35.9503,
        "meta_arg_of_pericenter": 75.4462,
        "meta_mean_anomaly": 285.3706,
        "meta_ephemeris_type": 0,
        "meta_classification_type": "U",
        "meta_norad_cat_id": 37988,
        "meta_element_set_no": 999,
        "meta_rev_at_epoch": 23305,
        "meta_bstar": 0.0013006623,
        "meta_mean_motion_dot": 7.798e-05,
        "meta_mean_motion_ddot": 0,
        "tle_line1": "1 37988U 93036BQP 25340.56709684  .00007798  00000+0  13007-2 0  9998",
        "tle_line2": "2 37988  74.0631  35.9503 0063195  75.4462 285.3706 14.68776482233052"
      },
      "geometry": {
        "type": "Point",
        "coordinates": [
          74.04872277872238,
          66.36094718573055
        ]
      }
    },
    {
      "type": "Feature",
      "properties": {
        "norad_id": 37993,
        "name": "COSMOS 2251 DEB",
        "group": "cosmos-2251-debris",
        "lat": 4.508561533816816,
        "lon": 177.37162600575877,
        "alt_km": 698.3835150574741,
        "timestamp": "2025-12-07T22:37:43.480096+00:00",
        "meta_object_name": "COSMOS 2251 DEB",
        "meta_object_id": "1993-036BQU",
        "meta_epoch": "2025-12-03T19:55:21.764064",
        "meta_mean_motion": 14.59748626,
        "meta_eccentricity": 0.00218643,
        "meta_inclination": 74.0235,
        "meta_ra_of_asc_node": 183.9251,
        "meta_arg_of_pericenter": 273.6547,
        "meta_mean_anomaly": 86.2118,
        "meta_ephemeris_type": 0,
        "meta_classification_type": "U",
        "meta_norad_cat_id": 37993,
        "meta_element_set_no": 999,
        "meta_rev_at_epoch": 65187,
        "meta_bstar": 0.0022910126,
        "meta_mean_motion_dot": 0.00010959,
        "meta_mean_motion_ddot": 0,
        "tle_line1": "1 37993U 93036BQU 25337.83011301  .00010959  00000+0  22910-2 0  9998",
        "tle_line2": "2 37993  74.0235 183.9251 0021864 273.6547  86.2118 14.59748626651873"
      },
      "geometry": {
        "type": "Point",
        "coordinates": [
          177.37162600575877,
          4.508561533816816
        ]
      }
    },
    {
      "type": "Feature",
      "properties": {
        "norad_id": 37994,
        "name": "COSMOS 2251 DEB",
        "group": "cosmos-2251-debris",
        "lat": 72.00680630350062,
        "lon": -13.646915251081625,
        "alt_km": 748.7670556203248,
        "timestamp": "2025-12-07T22:37:43.480106+00:00",
        "meta_object_name": "COSMOS 2251 DEB",
        "meta_object_id": "1993-036BQV",
        "meta_epoch": "2025-12-06T19:34:03.682560",
        "meta_mean_motion": 14.39601591,
        "meta_eccentricity": 0.00226443,
        "meta_inclination": 74.0359,
        "meta_ra_of_asc_node": 286.6284,
        "meta_arg_of_pericenter": 7.2523,
        "meta_mean_anomaly": 352.8955,
        "meta_ephemeris_type": 0,
        "meta_classification_type": "U",
        "meta_norad_cat_id": 37994,
        "meta_element_set_no": 999,
        "meta_rev_at_epoch": 76979,
        "meta_bstar": 0.00070925453,
        "meta_mean_motion_dot": 2.197e-05,
        "meta_mean_motion_ddot": 0,
        "tle_line1": "1 37994U 93036BQV 25340.81532040  .00002197  00000+0  70925-3 0  9994",
        "tle_line2": "2 37994  74.0359 286.6284 0022644   7.2523 352.8955 14.39601591769799"
      },
      "geometry": {
        "type": "Point",
        "coordinates": [
          -13.646915251081625,
          72.00680630350062
        ]
      }
    },
    {
      "type": "Feature",
      "properties": {
        "norad_id": 37996,
        "name": "COSMOS 2251 DEB",
        "group": "cosmos-2251-debris",
        "lat": 44.14081126753228,
        "lon": 15.53867864205667,
        "alt_km": 1010.6411003746207,
        "timestamp": "2025-12-07T22:37:43.480117+00:00",
        "meta_object_name": "COSMOS 2251 DEB",
        "meta_object_id": "1993-036BQX",
        "meta_epoch": "2025-11-16T18:35:00.708864",
        "meta_mean_motion": 14.09591608,
        "meta_eccentricity": 0.02219827,
        "meta_inclination": 74.0658,
        "meta_ra_of_asc_node": 248.8308,
        "meta_arg_of_pericenter": 5.4709,
        "meta_mean_anomaly": 354.8776,
        "meta_ephemeris_type": 0,
        "meta_classification_type": "U",
        "meta_norad_cat_id": 37996,
        "meta_element_set_no": 999,
        "meta_rev_at_epoch": 55769,
        "meta_bstar": 0.0096790999,
        "meta_mean_motion_dot": 0.00021331,
        "meta_mean_motion_ddot": 0,
        "tle_line1": "1 37996U 93036BQX 25320.77431376  .00021331  00000+0  96791-2 0  9998",
        "tle_line2": "2 37996  74.0658 248.8308 0221982   5.4709 354.8776 14.09591608557693"
      },
      "geometry": {
        "type": "Point",
        "coordinates": [
          15.53867864205667,
          44.14081126753228
        ]
      }
    },
    {
      "type": "Feature",
      "properties": {
        "norad_id": 37998,
        "name": "COSMOS 2251 DEB",
        "group": "cosmos-2251-debris",
        "lat": -58.5689733390594,
        "lon": 91.96950443259583,
        "alt_km": 743.9200185298068,
        "timestamp": "2025-12-07T22:37:43.480127+00:00",
        "meta_object_name": "COSMOS 2251 DEB",
        "meta_object_id": "1993-036BQZ",
        "meta_epoch": "2025-12-07T01:34:33.386016",
        "meta_mean_motion": 14.45444842,
        "meta_eccentricity": 0.00199405,
        "meta_inclination": 74.0387,
        "meta_ra_of_asc_node": 245.6796,
        "meta_arg_of_pericenter": 320.6712,
        "meta_mean_anomaly": 39.2997,
        "meta_ephemeris_type": 0,
        "meta_classification_type": "U",
        "meta_norad_cat_id": 37998,
        "meta_element_set_no": 999,
        "meta_rev_at_epoch": 64205,
        "meta_bstar": 0.00093558552,
        "meta_mean_motion_dot": 3.277e-05,
        "meta_mean_motion_ddot": 0,
        "tle_line1": "1 37998U 93036BQZ 25341.06566419  .00003277  00000+0  93559-3 0  9991",
        "tle_line2": "2 37998  74.0387 245.6796 0019940 320.6712  39.2997 14.45444842642056"
      },
      "geometry": {
        "type": "Point",
        "coordinates": [
          91.96950443259583,
          -58.5689733390594
        ]
      }
    }
  ]
}